{
  "type": "FeatureCollection",
  "features": [
    {
      "type": "Feature",
      "properties": {
        "norad_id": 39773,
        "name": "EUTELSAT 3B",
        "group": "eutelsat",
        "lat": -0.052988933453962814,
        "lon": -147.53827989646402,
        "alt_km": 35768.70402027454,
        "timestamp": "2025-12-24T07:45:05.870145+00:00",
        "meta_object_name": "EUTELSAT 3B",
        "meta_object_id": "2014-030A",
        "meta_epoch": "2025-12-23T21:42:25.165152",
        "meta_mean_motion": 1.00272581,
        "meta_eccentricity": 0.00043092,
        "meta_inclination": 0.0612,
        "meta_ra_of_asc_node": 346.8553,
        "meta_arg_of_pericenter": 244.7582,
        "meta_mean_anomaly": 189.7879,
        "meta_ephemeris_type": 0,
        "meta_classification_type": "U",
        "meta_norad_cat_id": 39773,
        "meta_element_set_no": 999,
        "meta_rev_at_epoch": 4231,
        "meta_bstar": 0,
        "meta_mean_motion_dot": 4.1e-07,
        "meta_mean_motion_ddot": 0,
        "tle_line1": "1 39773U 14030A   25357.90445793  .00000041  00000+0  00000+0 0  9993",
        "tle_line2": "2 39773   0.0612 346.8553 0004309 244.7582 189.7879  1.00272581 42317"
      },
      "geometry": {
        "type": "Point",
        "coordinates": [
          -147.53827989646402,
          -0.052988933453962814
        ]
      }
    },
    {
      "type": "Feature",
      "properties": {
        "norad_id": 40425,
        "name": "EUTELSAT 115 WEST B",
        "group": "eutelsat",
        "lat": -0.008662805182693025,
        "lon": 94.44649532481687,
        "alt_km": 35786.779623308015,
        "timestamp": "2025-12-24T07:45:05.870164+00:00",
        "meta_object_name": "EUTELSAT 115 WEST B",
        "meta_object_id": "2015-010B",
        "meta_epoch": "2025-12-23T12:35:11.985792",
        "meta_mean_motion": 1.00271081,
        "meta_eccentricity": 1.668e-05,
        "meta_inclination": 0.0089,
        "meta_ra_of_asc_node": 154.9718,
        "meta_arg_of_pericenter": 161.1699,
        "meta_mean_anomaly": 210.0501,
        "meta_ephemeris_type": 0,
        "meta_classification_type": "U",
        "meta_norad_cat_id": 40425,
        "meta_element_set_no": 999,
        "meta_rev_at_epoch": 3963,
        "meta_bstar": 0,
        "meta_mean_motion_dot": -4e-08,
        "meta_mean_motion_ddot": 0,
        "tle_line1": "1 40425U 15010B   25357.52444428 -.00000004  00000+0  00000+0 0  9990",
        "tle_line2": "2 40425   0.0089 154.9718 0000166 161.1699 210.0501  1.00271081 39635"
      },
      "geometry": {
        "type": "Point",
        "coordinates": [
          94.44649532481687,
          -0.008662805182693025
        ]
      }
    },
    {
      "type": "Feature",
      "properties": {
        "norad_id": 40875,
        "name": "EUTELSAT 8 WEST B",
        "group": "eutelsat",
        "lat": -0.02109019961854173,
        "lon": -158.68041791375092,
        "alt_km": 35780.74617911728,
        "timestamp": "2025-12-24T07:45:05.870178+00:00",
        "meta_object_name": "EUTELSAT 8 WEST B",
        "meta_object_id": "2015-039B",
        "meta_epoch": "2025-12-23T21:39:17.964000",
        "meta_mean_motion": 1.00271245,
        "meta_eccentricity": 0.00042387,
        "meta_inclination": 0.0639,
        "meta_ra_of_asc_node": 6.2561,
        "meta_arg_of_pericenter": 267.262,
        "meta_mean_anomaly": 135.9909,
        "meta_ephemeris_type": 0,
        "meta_classification_type": "U",
        "meta_norad_cat_id": 40875,
        "meta_element_set_no": 999,
        "meta_rev_at_epoch": 3789,
        "meta_bstar": 0,
        "meta_mean_motion_dot": -4.5e-07,
        "meta_mean_motion_ddot": 0,
        "tle_line1": "1 40875U 15039B   25357.90229125 -.00000045  00000+0  00000+0 0  9992",
        "tle_line2": "2 40875   0.0639   6.2561 0004238 267.2620 135.9909  1.00271245 37891"
      },
      "geometry": {
        "type": "Point",
        "coordinates": [
          -158.68041791375092,
          -0.02109019961854173
        ]
      }
    },
    {
      "type": "Feature",
      "properties": {
        "norad_id": 41310,
        "name": "EUTELSAT 9B",
        "group": "eutelsat",
        "lat": -0.00752325167528226,
        "lon": -141.6583432276057,
        "alt_km": 35774.17693410139,
        "timestamp": "2025-12-24T07:45:05.870190+00:00",
        "meta_object_name": "EUTELSAT 9B",
        "meta_object_id": "2016-005A",
        "meta_epoch": "2025-12-23T21:44:02.508576",
        "meta_mean_motion": 1.00272805,
        "meta_eccentricity": 0.00045039,
        "meta_inclination": 0.0224,
        "meta_ra_of_asc_node": 37.3402,
        "meta_arg_of_pericenter": 233.5602,
        "meta_mean_anomaly": 156.8118,
        "meta_ephemeris_type": 0,
        "meta_classification_type": "U",
        "meta_norad_cat_id": 41310,
        "meta_element_set_no": 999,
        "meta_rev_at_epoch": 3635,
        "meta_bstar": 0,
        "meta_mean_motion_dot": 8.3e-07,
        "meta_mean_motion_ddot": 0,
        "tle_line1": "1 41310U 16005A   25357.90558459  .00000083  00000+0  00000+0 0  9997",
        "tle_line2": "2 41310   0.0224  37.3402 0004503 233.5602 156.8118  1.00272805 36353"
      },
      "geometry": {
        "type": "Point",
        "coordinates": [
          -141.6583432276057,
          -0.00752325167528226
        ]
      }
    },
    {
      "type": "Feature",
      "properties": {
        "norad_id": 41382,
        "name": "EUTELSAT 65 WEST A",
        "group": "eutelsat",
        "lat": 0.02759544626725163,
        "lon": 144.16700984849194,
        "alt_km": 35792.164974237065,
        "timestamp": "2025-12-24T07:45:05.870202+00:00",
        "meta_object_name": "EUTELSAT 65 WEST A",
        "meta_object_id": "2016-014A",
        "meta_epoch": "2025-12-23T19:40:14.366208",
        "meta_mean_motion": 1.00272538,
        "meta_eccentricity": 0.00022199,
        "meta_inclination": 0.0497,
        "meta_ra_of_asc_node": 340.4081,
        "meta_arg_of_pericenter": 295.3715,
        "meta_mean_anomaly": 46.7011,
        "meta_ephemeris_type": 0,
        "meta_classification_type": "U",
        "meta_norad_cat_id": 41382,
        "meta_element_set_no": 999,
        "meta_rev_at_epoch": 3577,
        "meta_bstar": 0,
        "meta_mean_motion_dot": -2.55e-06,
        "meta_mean_motion_ddot": 0,
        "tle_line1": "1 41382U 16014A   25357.81961072 -.00000255  00000+0  00000+0 0  9997",
        "tle_line2": "2 41382   0.0497 340.4081 0002219 295.3715  46.7011  1.00272538 35775"
      },
      "geometry": {
        "type": "Point",
        "coordinates": [
          144.16700984849194,
          0.02759544626725163
        ]
      }
    },
    {
      "type": "Feature",
      "properties": {
        "norad_id": 41589,
        "name": "EUTELSAT 117 WEST B",
        "group": "eutelsat",
        "lat": -0.006637455563693872,
        "lon": 92.35189920015934,
        "alt_km": 35787.761826018344,
        "timestamp": "2025-12-24T07:45:05.870214+00:00",
        "meta_object_name": "EUTELSAT 117 WEST B",
        "meta_object_id": "2016-038B",
        "meta_epoch": "2025-12-23T11:38:38.460768",
        "meta_mean_motion": 1.00269065,
        "meta_eccentricity": 2.68e-05,
        "meta_inclination": 0.0101,
        "meta_ra_of_asc_node": 152.0489,
        "meta_arg_of_pericenter": 153.5082,
        "meta_mean_anomaly": 204.3674,
        "meta_ephemeris_type": 0,
        "meta_classification_type": "U",
        "meta_norad_cat_id": 41589,
        "meta_element_set_no": 999,
        "meta_rev_at_epoch": 3490,
        "meta_bstar": 0,
        "meta_mean_motion_dot": 1e-07,
        "meta_mean_motion_ddot": 0,
        "tle_line1": "1 41589U 16038B   25357.48516737  .00000010  00000+0  00000+0 0  9997",
        "tle_line2": "2 41589   0.0101 152.0489 0000268 153.5082 204.3674  1.00269065 34901"
      },
      "geometry": {
        "type": "Point",
        "coordinates": [
          92.35189920015934,
          -0.006637455563693872
        ]
      }
    },
    {
      "type": "Feature",
      "properties": {
        "norad_id": 42741,
        "name": "EUTELSAT 172B",
        "group": "eutelsat",
        "lat": -0.009366365449453013,
        "lon": 21.36763336981095,
        "alt_km": 35787.03057487202,
        "timestamp": "2025-12-24T07:45:05.870226+00:00",
        "meta_object_name": "EUTELSAT 172B",
        "meta_object_id": "2017-029B",
        "meta_epoch": "2025-12-23T20:47:52.888704",
        "meta_mean_motion": 1.00269764,
        "meta_eccentricity": 2.513e-05,
        "meta_inclination": 0.0215,
        "meta_ra_of_asc_node": 113.3929,
        "meta_arg_of_pericenter": 20.3426,
        "meta_mean_anomaly": 82.8905,
        "meta_ephemeris_type": 0,
        "meta_classification_type": "U",
        "meta_norad_cat_id": 42741,
        "meta_element_set_no": 999,
        "meta_rev_at_epoch": 3197,
        "meta_bstar": 0,
        "meta_mean_motion_dot": 1.5e-07,
        "meta_mean_motion_ddot": 0,
        "tle_line1": "1 42741U 17029B   25357.86658436  .00000015  00000+0  00000+0 0  9999",
        "tle_line2": "2 42741   0.0215 113.3929 0000251  20.3426  82.8905  1.00269764 31978"
      },
      "geometry": {
        "type": "Point",
        "coordinates": [
          21.36763336981095,
          -0.009366365449453013
        ]
      }
    }
  ]
}